start=new Date('2021-09-14T00:00:00.000Z').valueOf();
sats=[{"MEAN_MOTION_DDOT":"0.0000000000000","RA_OF_ASC_NODE":"305.7196","COUNTRY_CODE":"US","ELEMENT_SET_NO":"999","ARG_OF_PERICENTER":"147.6698","FILE":"3114857","OBJECT_ID":"2021-027L","NORAD_CAT_ID":"48102","CENTER_NAME":"EARTH","INCLINATION":"53.0513","SITE":"AFETR","TLE_LINE1":"1 48102U 21027L   21256.50904322 -.00001583  00000-0 -87463-4 0  9999","CLASSIFICATION_TYPE":"U","PERIOD":"95.593","BSTAR":"-0.00008746300000","LAUNCH_DATE":"2021-04-07","MEAN_MOTION_DOT":"-0.00001583","EPHEMERIS_TYPE":"0","MEAN_ANOMALY":"212.4324","SEMIMAJOR_AXIS":"6925.373","REF_FRAME":"TEME","APOAPSIS":"547.607","MEAN_MOTION":"15.06392035","TLE_LINE2":"2 48102  53.0513 305.7196 0000533 147.6698 212.4324 15.06392035 25387","ECCENTRICITY":"0.00005330","OBJECT_TYPE":"PAYLOAD","PERIAPSIS":"546.869","GP_ID":"184638938","TIME_SYSTEM":"UTC","OBJECT_NAME":"STARLINK-2437","REV_AT_EPOCH":"2538","DECAY_DATE":null,"RCS_SIZE":"LARGE","EPOCH":"2021-09-13T12:13:01.334208","MEAN_ELEMENT_THEORY":"SGP4"},{"FILE":"3115005","ARG_OF_PERICENTER":"185.4641","ELEMENT_SET_NO":"999","RA_OF_ASC_NODE":"305.1052","COUNTRY_CODE":"US","MEAN_MOTION_DDOT":"0.0000000000000","CENTER_NAME":"EARTH","NORAD_CAT_ID":"48103","OBJECT_ID":"2021-027M","LAUNCH_DATE":"2021-04-07","BSTAR":"-0.00001011100000","PERIOD":"95.593","CLASSIFICATION_TYPE":"U","TLE_LINE1":"1 48103U 21027M   21256.64910463 -.00000432  00000-0 -10111-4 0  9996","SITE":"AFETR","INCLINATION":"53.0434","REF_FRAME":"TEME","SEMIMAJOR_AXIS":"6925.396","EPHEMERIS_TYPE":"0","MEAN_ANOMALY":"174.6335","MEAN_MOTION_DOT":"-0.00000432","MEAN_MOTION":"15.06384551","APOAPSIS":"548.102","ECCENTRICITY":"0.00012150","TLE_LINE2":"2 48103  53.0434 305.1052 0001215 185.4641 174.6335 15.06384551 25803","REV_AT_EPOCH":"2580","OBJECT_NAME":"STARLINK-2438","TIME_SYSTEM":"UTC","GP_ID":"184664359","PERIAPSIS":"546.419","OBJECT_TYPE":"PAYLOAD","MEAN_ELEMENT_THEORY":"SGP4","RCS_SIZE":"LARGE","EPOCH":"2021-09-13T15:34:42.640032","DECAY_DATE":null},{"OBJECT_TYPE":"PAYLOAD","PERIAPSIS":"547.010","GP_ID":"184664092","TIME_SYSTEM":"UTC","OBJECT_NAME":"STARLINK-2439","REV_AT_EPOCH":"2574","DECAY_DATE":null,"RCS_SIZE":"LARGE","EPOCH":"2021-09-13T15:52:38.658720","MEAN_ELEMENT_THEORY":"SGP4","APOAPSIS":"547.494","MEAN_MOTION":"15.06387517","TLE_LINE2":"2 48104  53.0565 310.0064 0000349 191.4100 168.6881 15.06387517 25748","ECCENTRICITY":"0.00003490","INCLINATION":"53.0565","SITE":"AFETR","TLE_LINE1":"1 48104U 21027N   21256.66155855  .00001255  00000-0  10316-3 0  9993","PERIOD":"95.593","CLASSIFICATION_TYPE":"U","BSTAR":"0.00010316000000","LAUNCH_DATE":"2021-04-07","MEAN_MOTION_DOT":"0.00001255","MEAN_ANOMALY":"168.6881","EPHEMERIS_TYPE":"0","SEMIMAJOR_AXIS":"6925.387","REF_FRAME":"TEME","MEAN_MOTION_DDOT":"0.0000000000000","COUNTRY_CODE":"US","RA_OF_ASC_NODE":"310.0064","ELEMENT_SET_NO":"999","ARG_OF_PERICENTER":"191.4100","FILE":"3115005","OBJECT_ID":"2021-027N","NORAD_CAT_ID":"48104","CENTER_NAME":"EARTH"},{"INCLINATION":"53.0434","SITE":"AFETR","TLE_LINE1":"1 48105U 21027P   21256.42962373 -.00000163  00000-0  33023-5 0  9999","CLASSIFICATION_TYPE":"U","PERIOD":"91.535","BSTAR":"0.00000330230000","LAUNCH_DATE":"2021-04-07","MEAN_MOTION_DOT":"-0.00000163","EPHEMERIS_TYPE":"0","MEAN_ANOMALY":"12.8826","REF_FRAME":"TEME","SEMIMAJOR_AXIS":"6727.964","MEAN_MOTION_DDOT":"0.0000000000000","COUNTRY_CODE":"US","RA_OF_ASC_NODE":"271.6651","ELEMENT_SET_NO":"999","FILE":"3114796","ARG_OF_PERICENTER":"347.2079","OBJECT_ID":"2021-027P","NORAD_CAT_ID":"48105","CENTER_NAME":"EARTH","OBJECT_TYPE":"PAYLOAD","PERIAPSIS":"346.873","GP_ID":"184636616","TIME_SYSTEM":"UTC","OBJECT_NAME":"STARLINK-2440","REV_AT_EPOCH":"2625","DECAY_DATE":null,"RCS_SIZE":"LARGE","EPOCH":"2021-09-13T10:18:39.490272","MEAN_ELEMENT_THEORY":"SGP4","APOAPSIS":"352.784","MEAN_MOTION":"15.73176032","TLE_LINE2":"2 48105  53.0434 271.6651 0004393 347.2079  12.8826 15.73176032 26255","ECCENTRICITY":"0.00043930"},{"NORAD_CAT_ID":"48106","CENTER_NAME":"EARTH","OBJECT_ID":"2021-027Q","ARG_OF_PERICENTER":"122.5842","FILE":"3114926","MEAN_MOTION_DDOT":"0.0000000000000","RA_OF_ASC_NODE":"305.4921","COUNTRY_CODE":"US","ELEMENT_SET_NO":"999","MEAN_ANOMALY":"237.5185","EPHEMERIS_TYPE":"0","REF_FRAME":"TEME","SEMIMAJOR_AXIS":"6925.355","MEAN_MOTION_DOT":"-0.00000440","PERIOD":"95.592","CLASSIFICATION_TYPE":"U","LAUNCH_DATE":"2021-04-07","BSTAR":"-0.00001064600000","INCLINATION":"53.0550","SITE":"AFETR","TLE_LINE1":"1 48106U 21027Q   21256.55232377 -.00000440  00000-0 -10646-4 0  9992","TLE_LINE2":"2 48106  53.0550 305.4921 0000391 122.5842 237.5185 15.06398014 25397","ECCENTRICITY":"0.00003910","MEAN_MOTION":"15.06398014","APOAPSIS":"547.490","MEAN_ELEMENT_THEORY":"SGP4","DECAY_DATE":null,"RCS_SIZE":"LARGE","EPOCH":"2021-09-13T13:15:20.773728","TIME_SYSTEM":"UTC","OBJECT_NAME":"STARLINK-2442","REV_AT_EPOCH":"2539","OBJECT_TYPE":"PAYLOAD","PERIAPSIS":"546.949","GP_ID":"184640429"},{"MEAN_MOTION":"15.06398302","APOAPSIS":"547.736","ECCENTRICITY":"0.00007470","TLE_LINE2":"2 48107  53.0550 306.0167 0000747 113.0081 247.0987 15.06398302 25376","REV_AT_EPOCH":"2537","OBJECT_NAME":"STARLINK-2443","TIME_SYSTEM":"UTC","GP_ID":"184638450","PERIAPSIS":"546.701","OBJECT_TYPE":"PAYLOAD","MEAN_ELEMENT_THEORY":"SGP4","RCS_SIZE":"LARGE","EPOCH":"2021-09-13T10:26:51.580608","DECAY_DATE":null,"FILE":"3114859","ARG_OF_PERICENTER":"113.0081","ELEMENT_SET_NO":"999","RA_OF_ASC_NODE":"306.0167","COUNTRY_CODE":"US","MEAN_MOTION_DDOT":"0.0000000000000","CENTER_NAME":"EARTH","NORAD_CAT_ID":"48107","OBJECT_ID":"2021-027R","BSTAR":"-0.00001608100000","LAUNCH_DATE":"2021-04-07","CLASSIFICATION_TYPE":"U","PERIOD":"95.592","TLE_LINE1":"1 48107U 21027R   21256.43531922 -.00000521  00000-0 -16081-4 0  9997","SITE":"AFETR","INCLINATION":"53.0550","REF_FRAME":"TEME","SEMIMAJOR_AXIS":"6925.354","MEAN_ANOMALY":"247.0987","EPHEMERIS_TYPE":"0","MEAN_MOTION_DOT":"-0.00000521"},{"MEAN_MOTION_DDOT":"0.0000000000000","ELEMENT_SET_NO":"999","COUNTRY_CODE":"US","RA_OF_ASC_NODE":"315.2520","FILE":"3115005","ARG_OF_PERICENTER":"149.5011","OBJECT_ID":"2021-027S","NORAD_CAT_ID":"48108","CENTER_NAME":"EARTH","INCLINATION":"53.0569","TLE_LINE1":"1 48108U 21027S   21256.60763350  .00000625  00000-0  60829-4 0  9991","SITE":"AFETR","CLASSIFICATION_TYPE":"U","PERIOD":"95.592","BSTAR":"0.00006082900000","LAUNCH_DATE":"2021-04-07","MEAN_MOTION_DOT":"0.00000625","REF_FRAME":"TEME","SEMIMAJOR_AXIS":"6925.346","EPHEMERIS_TYPE":"0","MEAN_ANOMALY":"210.6032","APOAPSIS":"547.853","MEAN_MOTION":"15.06400888","TLE_LINE2":"2 48108  53.0569 315.2520 0000927 149.5011 210.6032 15.06400888 25650","ECCENTRICITY":"0.00009270","PERIAPSIS":"546.569","OBJECT_TYPE":"PAYLOAD","GP_ID":"184664593","OBJECT_NAME":"STARLINK-2444","TIME_SYSTEM":"UTC","REV_AT_EPOCH":"2565","RCS_SIZE":"LARGE","EPOCH":"2021-09-13T14:34:59.534400","DECAY_DATE":null,"MEAN_ELEMENT_THEORY":"SGP4"},{"MEAN_ELEMENT_THEORY":"SGP4","RCS_SIZE":"LARGE","EPOCH":"2021-09-13T16:30:26.993088","DECAY_DATE":null,"REV_AT_EPOCH":"2553","OBJECT_NAME":"STARLINK-2445","TIME_SYSTEM":"UTC","GP_ID":"184663358","PERIAPSIS":"546.654","OBJECT_TYPE":"PAYLOAD","ECCENTRICITY":"0.00008570","TLE_LINE2":"2 48109  53.0561 324.8810 0000857 122.7258 237.3814 15.06388819 25539","MEAN_MOTION":"15.06388819","APOAPSIS":"547.841","SEMIMAJOR_AXIS":"6925.383","REF_FRAME":"TEME","MEAN_ANOMALY":"237.3814","EPHEMERIS_TYPE":"0","MEAN_MOTION_DOT":"-0.00002340","LAUNCH_DATE":"2021-04-07","BSTAR":"-0.00013832000000","PERIOD":"95.593","CLASSIFICATION_TYPE":"U","TLE_LINE1":"1 48109U 21027T   21256.68781242 -.00002340  00000-0 -13832-3 0  9999","SITE":"AFETR","INCLINATION":"53.0561","CENTER_NAME":"EARTH","NORAD_CAT_ID":"48109","OBJECT_ID":"2021-027T","ARG_OF_PERICENTER":"122.7258","FILE":"3115005","ELEMENT_SET_NO":"999","RA_OF_ASC_NODE":"324.8810","COUNTRY_CODE":"US","MEAN_MOTION_DDOT":"0.0000000000000"},{"OBJECT_ID":"2021-027U","NORAD_CAT_ID":"48110","CENTER_NAME":"EARTH","MEAN_MOTION_DDOT":"0.0000000000000","COUNTRY_CODE":"US","RA_OF_ASC_NODE":"314.9950","ELEMENT_SET_NO":"999","FILE":"3115005","ARG_OF_PERICENTER":"143.4789","MEAN_MOTION_DOT":"-0.00000107","MEAN_ANOMALY":"216.6242","EPHEMERIS_TYPE":"0","SEMIMAJOR_AXIS":"6925.369","REF_FRAME":"TEME","INCLINATION":"53.0558","SITE":"AFETR","TLE_LINE1":"1 48110U 21027U   21256.66292649 -.00000107  00000-0  11699-4 0  9995","CLASSIFICATION_TYPE":"U","PERIOD":"95.593","BSTAR":"0.00001169900000","LAUNCH_DATE":"2021-04-07","TLE_LINE2":"2 48110  53.0558 314.9950 0000615 143.4789 216.6242 15.06393289 25670","ECCENTRICITY":"0.00006150","APOAPSIS":"547.660","MEAN_MOTION":"15.06393289","DECAY_DATE":null,"RCS_SIZE":"LARGE","EPOCH":"2021-09-13T15:54:36.848736","MEAN_ELEMENT_THEORY":"SGP4","OBJECT_TYPE":"PAYLOAD","PERIAPSIS":"546.808","GP_ID":"184663608","TIME_SYSTEM":"UTC","OBJECT_NAME":"STARLINK-2447","REV_AT_EPOCH":"2567"},{"CENTER_NAME":"EARTH","NORAD_CAT_ID":"48111","OBJECT_ID":"2021-027V","FILE":"3115005","ARG_OF_PERICENTER":"135.2443","COUNTRY_CODE":"US","RA_OF_ASC_NODE":"315.0012","ELEMENT_SET_NO":"999","MEAN_MOTION_DDOT":"0.0000000000000","EPHEMERIS_TYPE":"0","MEAN_ANOMALY":"224.8616","REF_FRAME":"TEME","SEMIMAJOR_AXIS":"6925.382","MEAN_MOTION_DOT":"0.00000064","BSTAR":"0.00002315200000","LAUNCH_DATE":"2021-04-07","PERIOD":"95.593","CLASSIFICATION_TYPE":"U","SITE":"AFETR","TLE_LINE1":"1 48111U 21027V   21256.65830820  .00000064  00000-0  23152-4 0  9992","INCLINATION":"53.0621","ECCENTRICITY":"0.00008670","TLE_LINE2":"2 48111  53.0621 315.0012 0000867 135.2443 224.8616 15.06389173 25671","MEAN_MOTION":"15.06389173","APOAPSIS":"547.847","MEAN_ELEMENT_THEORY":"SGP4","DECAY_DATE":null,"RCS_SIZE":"LARGE","EPOCH":"2021-09-13T15:47:57.828480","REV_AT_EPOCH":"2567","TIME_SYSTEM":"UTC","OBJECT_NAME":"STARLINK-2448","GP_ID":"184664360","OBJECT_TYPE":"PAYLOAD","PERIAPSIS":"546.646"}];
